Employbl Company ID,Company Name,City,State,Zip,Latitude,Longitude
876,Grabr,San Francisco,CA,94111,37.798439,-122.402248
181,Creative Market,San Francisco,CA,94111,37.800539,-122.396966
324,Hornblower Cruises,San Francisco,CA,94111,37.798031,-122.394973
38,Alpha Sense,San Francisco,CA,94104,37.790436,-122.401266
55,Apple,Cupertino,CA,95014,37.33182,-122.03118
952,MarkLogic,San Carlos,CA,94070,37.50734,-122.246944
84,Betterworks,Redwood City,CA,94063,37.484282,-122.225865
28,Airbnb,San Francisco,CA,94103,37.770138,-122.406353
808,Zignal Labs,San Francisco,CA,94103,37.782187,-122.409907
165,Code Nation,San Francisco,CA,94103,37.782052,-122.409694
395,Lever,San Francisco,CA,94103,37.782292,-122.409546
664,Storenvy,San Francisco,CA,94102,37.782762,-122.410379
80,Benchmark Capital,San Francisco,CA,94102,37.782762,-122.410379
1079,Forcepoint,Los Gatos,CA,95032,37.249966,-121.967384
963,One Medical,San Francisco,CA,94107,37.782989,-122.393071
319,Holberton School,San Francisco,CA,94111,37.792085,-122.399368
27,After College,San Francisco,CA,94111,37.792085,-122.399368
380,Knotel,San Francisco,CA,94103,37.781703,-122.408409
835,Roblox,San Mateo,CA,94403,37.544412,-122.293699
376,Kiip,San Francisco,CA,94107,37.779299,-122.405026
196,Datavisor,Mountain View,CA,94043,37.407728,-122.077488
433,Memebox,San Francisco,CA,94103,37.781519,-122.407699
791,Y Combinator SF,San Francisco,CA,94103,37.781709,-122.407809
338,Indiegogo,San Francisco,CA,94103,37.781409,-122.407592
861,Leetcode,Palo Alto,CA,94303,37.424205,-122.098878
574,Resilio,San Francisco,CA,94105,37.787677,-122.398995
303,Hack Reactor,San Francisco,CA,94102,37.783697,-122.408966
573,Rescale,San Francisco,CA,94102,37.78376,-122.408816
246,Figure Eight,San Francisco,CA,94103,37.780922,-122.406243
119,Bugsnag,San Francisco,CA,94107,37.778197,-122.40252
597,Sano,San Francisco,CA,94107,37.778387,-122.402266
478,No Means No Worldwide,San Francisco,CA,94111,37.799885,-122.400479
118,Bugcrowd,San Francisco,CA,94111,37.799885,-122.400479
545,Qualys,Foster City,CA,94404,37.555726,-122.276719
16,Adecco Group,San Bruno,CA,94066,37.635,-122.424555
285,Good Eggs,San Francisco,CA,94124,37.740966,-122.394958
325,HotelTonight,San Francisco,CA,94103,37.783436,-122.408038
419,Marketo,San Mateo,CA,94404,37.559895,-122.287037
982,YouTube,San Bruno,CA,94066,37.628293,-122.426523
769,Wealthfront,Redwood City,CA,94063,37.485152,-122.229612
858,Visa,Foster City,CA,94404,37.559665,-122.275934
104,Box,Redwood City,CA,94063,37.48487,-122.229315
48,AngelList,San Francisco,CA,94133,37.796759,-122.403471
6,23andMe,Mountain View,CA,94041,37.395208,-122.079159
539,Proofpoint,Sunnyvale,CA,94089,37.400617,-122.032115
610,Sendgrid,Redwood City,CA,94063,37.485417,-122.229213
223,Ejento,San Francisco,CA,94107,37.779555,-122.4015
436,Mesosphere,San Francisco,CA,94105,37.789422,-122.400547
557,Randstad,San Francisco,CA,94108,37.788638,-122.403344
239,Expensify,San Francisco,CA,94108,37.788693,-122.403332
276,GitHub,San Francisco,CA,94107,37.782267,-122.391248
474,Nextdoor,San Francisco,CA,94103,37.776363,-122.416331
469,Nerd Wallet,San Francisco,CA,94103,37.776363,-122.416331
523,Pivotal,San Francisco,CA,94103,37.781822,-122.403975
379,Kiva,San Francisco,CA,94103,37.781822,-122.403975
282,Glu Mobile,San Francisco,CA,94105,37.781833,-122.403986
765,Walmart Labs,Sunnyvale,CA,94086,37.381451,-122.036953
799,Zedo,San Francisco,CA,94133,37.797157,-122.403406
173,Collective Health,San Francisco,CA,94107,37.776105,-122.397302
120,BuildingConnected,San Francisco,CA,94105,37.78845,-122.399909
418,Mapbox,San Francisco,CA,94105,37.78844,-122.399855
141,Chartboost,San Francisco,CA,94105,37.78844,-122.399855
543,Qadium,San Francisco,CA,94105,37.78844,-122.399855
399,Lime,San Francisco,CA,94105,37.78835,-122.399738
377,Kissmetrics,San Francisco,CA,94111,37.798028,-122.40251
260,Fossa,San Francisco,CA,94103,37.78451,-122.406709
316,HireClub,San Francisco,CA,94103,37.784219,-122.406176
946,Kabam,San Francisco,CA,94107,37.782188,-122.400495
728,TrustArc,San Francisco,CA,94103,37.783518,-122.406862
188,Crunchyroll,San Francisco,CA,94103,37.783535,-122.406855
937,GoPro,San Francisco,CA,94103,37.784688,-122.40694
194,DataFox,San Francisco,CA,94103,37.782493,-122.403364
828,GoodTime,San Francisco,CA,94103,37.782493,-122.403364
51,App Academy,San Francisco,CA,94111,37.799195,-122.401373
457,Mountain View Staffing,Palo Alto,CA,94303,37.421099,-122.101449
447,MitchelLake Group,San Francisco,CA,94111,37.797747,-122.402228
711,Thoughtworks,San Francisco,CA,94103,37.784414,-122.404915
49,Anomali,Redwood City,CA,94063,37.486075,-122.231216
33,Alation,Redwood City,CA,94063,37.491223,-122.228606
916,NetSpring,Mountain View,CA,94040,37.386564,-122.084176
931,Elastic,Mountain View,CA,94040,37.386495,-122.084129
341,InfluxData,San Francisco,CA,94103,37.785885,-122.405289
430,Medium,San Francisco,CA,94102,37.776318,-122.393848
29,Airtable,San Francisco,CA,94103,37.785885,-122.405289
546,Quantcast,San Francisco,CA,94107,37.782143,-122.400493
40,Always Hired,San Francisco,CA,94103,37.782143,-122.400493
315,HintMD,Pleasanton,CA,94588,37.690223,-121.930334
160,CloudFabrix,Pleasanton,CA,94588,37.690223,-121.930334
600,SavvyMoney,Pleasanton,CA,94588,37.690223,-121.930334
451,Model N,San Mateo,CA,94404,37.559179,-122.286982
580,Rigetti Computing,Berkeley,CA,94710,37.853277,-122.293637
519,Philo,San Francisco,CA,94107,37.776697,-122.402105
1081,AgilOne,Sunnyvale,CA,94085,37.395589,-122.031758
948,Logitech,Newark,CA,94560,37.539124,-122.06178
510,Patagonia,San Francisco,CA,94109,37.805997,-122.419946
571,Remind,San Francisco,CA,94107,37.78203,-122.395713
401,Linqia,San Francisco,CA,94108,37.788176,-122.404682
9,140 Proof,San Francisco,CA,94107,37.78226,-122.392125
289,Gorgias,San Francisco,CA,94107,37.781522,-122.399156
59,Apteligent,San Francisco,CA,94102,37.786529,-122.405385
255,Flexport,San Francisco,CA,94102,37.786529,-122.405385
182,Credit Karma,San Francisco,CA,94102,37.78656,-122.405275
1076,SVG Ventures,Los Gatos,CA,95032,37.238909,-121.973883
1078,Sterling Communications,Los Gatos,CA,95032,37.238909,-121.973883
699,Tenable,San Jose,CA,95113,37.337119,-121.889391
821,CommonGenius,San Jose,CA,95113,37.337119,-121.889391
218,Eat Club,San Francisco,CA,94103,37.77714,-122.405153
444,Minted,San Francisco,CA,94111,37.79846,-122.400269
934,Funding Circle,San Francisco,CA,94111,37.798456,-122.399995
933,Flipboard,Palo Alto,CA,94301,37.442773,-122.159474
534,Practice Fusion,San Francisco,CA,94103,37.786642,-122.403997
548,Quip,San Francisco,CA,94103,37.786642,-122.403997
898,Productboard,San Francisco,CA,94103,37.786844,-122.404042
616,Shippo,San Francisco,CA,94103,37.786844,-122.404042
286,Goodby Silverstein & Partners,San Francisco,CA,94108,37.792664,-122.406541
180,Cradlepoint,Los Gatos,CA,95032,37.236957,-121.975021
508,Pantheon,San Francisco,CA,94108,37.792231,-122.406141
302,Gymboree Group,San Francisco,CA,94105,37.789273,-122.399583
392,Lending Club,San Francisco,CA,94105,37.789273,-122.399583
981,Yahoo,Sunnyvale,CA,94089,37.417181,-122.025012
1060,HackerRank,Mountain View,CA,94041,37.377584,-122.064086
201,DesignMap,San Francisco,CA,94110,37.76028,-122.411927
127,Campsyte,San Francisco,CA,94107,37.779515,-122.396102
815,Zynga,San Francisco,CA,94103,37.770445,-122.404141
486,Nylas,San Francisco,CA,94103,37.777062,-122.41238
441,Metromile,San Francisco,CA,94107,37.784211,-122.398987
974,Synopsys,Mountain View,CA,94043,37.394497,-122.050391
918,User Testing Inc.,San Francisco,CA,94107,37.775329,-122.397653
978,UserTesting,San Francisco,CA,94107,37.775329,-122.397653
532,Postmates,San Francisco,CA,94107,37.775336,-122.397647
626,Sindeo,San Francisco,CA,94111,37.800349,-122.400758
87,BigCommerce,San Francisco,CA,94105,37.787795,-122.402906
345,Insightly,San Francisco,CA,94107,37.78459,-122.398566
199,Demandbase,San Francisco,CA,94107,37.784558,-122.398564
413,Macy's,San Francisco,CA,94107,37.784558,-122.398564
637,SmugMug,Mountain View,CA,94041,37.389879,-122.067676
729,Turo,San Francisco,CA,94105,37.786784,-122.401279
529,Portrait Displays,Pleasanton,CA,94588,37.697403,-121.909145
556,Rally Health,San Francisco,CA,94107,37.779398,-122.393011
480,Notable Labs,San Francisco,CA,94107,37.779501,-122.393038
754,Virtusa,Fremont,CA,94555,37.546319,-122.064388
189,Culture Amp,San Francisco,CA,94104,37.788307,-122.402957
863,Talix,San Francisco,CA,94107,37.779035,-122.393586
287,GoodData,San Francisco,CA,94107,37.779035,-122.393586
47,Angaza,San Francisco,CA,94103,37.782333,-122.407604
477,NinjaRMM,San Francisco,CA,94105,37.786708,-122.400844
879,Human Interest,San Francisco,CA,94111,37.795242,-122.403654
361,Joyent,San Francisco,CA,94111,37.795246,-122.403523
566,Redfin,San Francisco,CA,94111,37.795242,-122.403654
86,Beyond Games,San Francisco,CA,94111,37.795246,-122.403523
576,Returnly,San Francisco,CA,94111,37.795242,-122.403654
730,TwentyThree,San Francisco,CA,94107,37.777739,-122.395441
387,Layer,San Francisco,CA,94107,37.777739,-122.395441
521,Pinterest,San Francisco,CA,94107,37.775234,-122.399659
484,Nuna,San Francisco,CA,94103,37.771032,-122.403307
354,iRhythm,San Francisco,CA,94103,37.771032,-122.403307
890,WanderJaunt,San Francisco,CA,94105,37.787265,-122.401168
92,Bitnami,San Francisco,CA,94105,37.787275,-122.401127
549,Quora,Mountain View,CA,94041,37.387912,-122.083125
979,WhatsApp,Mountain View,CA,94041,37.387999,-122.082985
503,Outreach,San Francisco,CA,94108,37.792912,-122.405211
53,AppDirect,San Francisco,CA,94108,37.792912,-122.405211
193,Datadog,San Francisco,CA,94108,37.792936,-122.405378
26,Affirm,San Francisco,CA,94108,37.792912,-122.405211
649,Sparkcentral,San Francisco,CA,94108,37.792912,-122.405211
780,Woebot Labs,San Francisco,CA,94107,37.775591,-122.398012
364,June Oven,San Francisco,CA,94111,37.797512,-122.399816
128,Canopy Health,Emeryville,CA,94608,37.845796,-122.29669
99,BlueCrew,San Francisco,CA,94103,37.772775,-122.402309
740,Urban Airship,San Francisco,CA,94107,37.783797,-122.396507
391,LeapFrog,Emeryville,CA,94608,37.845358,-122.291794
753,Vineti,San Francisco,CA,94105,37.785928,-122.398847
206,Divvy Homes,San Francisco,CA,94107,37.784547,-122.397215
537,Prezi,San Francisco,CA,9410,37.784517,-122.397194
497,Optimizely,San Francisco,CA,94105,37.786029,-122.398555
878,Hewlett-Packard Enterprise,San Jose,CA,95002,37.419235,-121.978859
525,Pixlee,San Francisco,CA,94105,37.788622,-122.40164
397,Lightbend,San Francisco,CA,94105,37.788653,-122.40168
114,Brightpearl,San Francisco,CA,94105,37.788653,-122.40168
373,Kentik,San Francisco,CA,94107,37.781695,-122.39106
333,IGN Entertainment,San Francisco,CA,94107,37.781695,-122.39106
93,Blackhawk Network,Pleasanton,CA,94588,37.695488,-121.9218
655,SpringML,Pleasanton,CA,94588,37.695881,-121.924518
416,Mailgun,San Francisco,CA,94107,37.785269,-122.397576
1000,DeltaTrak,Pleasanton,CA,94588,37.697751,-121.923222
721,Tradeshift,San Francisco,CA,94105,37.78671,-122.398897
787,Workday,Pleasanton,CA,94588,37.697788,-121.925522
669,Strive Talent,San Francisco,CA,94110,37.763441,-122.417039
23,Aerotek,South San Francisco,CA,94080,37.65869,-122.400136
82,Betterment,New York,NY,10010,40.74273,-73.991864
886,SentinelOne,Mountain View,CA,94043,37.402611,-122.049253
727,Truly,San Francisco,CA,94115,37.78797,-122.400204
18,Adobe,San Francisco,CA,94103,37.771206,-122.401662
822,Court Buddy,San Francisco,CA,94108,37.792359,-122.404738
152,Clearbit,San Francisco,CA,94107,37.778035,-122.396166
504,PagerDuty,San Francisco,CA,94103,37.771696,-122.40257
21,Advent Software,San Francisco,CA,94103,37.771704,-122.402634
468,NepFin,San Francisco,CA,94111,37.795184,-122.402764
547,Quid,San Francisco,CA,94107,37.784126,-122.395826
737,Udemy,San Francisco,CA,94107,37.784199,-122.395895
17,Admitsee,San Francisco,CA,94109,37.792955,-122.404794
652,Spotinst,San Francisco,CA,94108,37.792922,-122.404737
553,RainForest QA,San Francisco,CA,94111,37.797587,-122.400685
270,Gemini,New York,NY,10016,40.749324,-73.975909
137,Castle,San Francisco,CA,94103,37.776142,-122.409695
624,SignalFx,San Mateo,CA,94401,37.563562,-122.324503
747,Verkada,San Mateo,CA,94401,37.563562,-122.324503
195,Dataminr,New York,NY,10016,40.746545,-73.984982
50,Apollo,San Francisco,CA,94107,37.782263,-122.392143
814,Zymergen,Emeryville,CA,94608,37.841406,-122.291085
531,Postman,San Francisco,CA,94105,37.789215,-122.4008
781,Wollborg Michelson Recruiting,San Francisco,CA,94105,37.789215,-122.4008
248,FinancialForce,San Francisco,CA,94105,37.789215,-122.4008
467,Nelson Staffing,San Francisco,CA,94104,37.789215,-122.4008
632,Slashdot Media,San Francisco,CA,94105,37.787077,-122.398189
476,Neyborly,San Francisco,CA,94102,37.789137,-122.410081
458,MoveWith,San Francisco,CA,94105,37.787171,-122.398138
34,Algolia,San Francisco,CA,94105,37.78691,-122.397679
673,SV Angel,San Francisco,CA,94102,37.789279,-122.410011
240,Exponential,Emeryville,CA,94608,37.840151,-122.290686
818,Blackbaud,Emeryville,CA,94608,37.840151,-122.290686
133,Carbon Five,San Francisco,CA,94105,37.786969,-122.397569
439,Method,San Francisco,CA,94105,37.786908,-122.397483
156,ClickUp,San Francisco,CA,94105,37.787258,-122.398063
385,Lattice,San Francisco,CA,94105,37.787258,-122.398063
102,Blurb,San Francisco,CA,94104,37.792982,-122.404143
190,CyberCube,San Francisco,CA,94105,37.788465,-122.400666
175,comma.ai,San Francisco,CA,94107,37.762642,-122.402942
823,Deliverr,San Francisco,CA,94105,37.787107,-122.397547
913,GoodRx,San Francisco,CA,94107,37.782257,-122.392295
606,Scion Staffing,San Francisco,CA,94111,37.793954,-122.402636
106,Bradfield School of Computer Science,San Francisco,CA,94103,37.778974,-122.409555
98,Blue River Technology,Sunnyvale,CA,94085,37.391861,-122.034289
724,Trifacata,San Francisco,CA,94105,37.789551,-122.400313
772,Wellio,San Francisco,CA,94105,37.789551,-122.400313
685,Talentburst,San Francisco,CA,94105,37.789551,-122.400313
795,Yext,San Francisco,CA,94105,37.789831,-122.400272
867,Codility,San Francisco,CA,94105,37.789551,-122.400313
464,Namely,San Francisco,CA,94105,37.789551,-122.400313
421,Mashery,San Francisco,CA,94105,37.789551,-122.400313
362,Judge Group,San Francisco,CA,94105,37.789551,-122.400313
293,Greenhouse Software,San Francisco,CA,94105,37.789551,-122.400313
166,Codecademy,New York,NY,10012,40.724518,-73.997855
24,AEye,Pleasanton,CA,94588,37.691173,-121.891925
36,Allbirds,San Francisco,CA,94111,37.796147,-122.40294
187,Crunchbase,San Francisco,CA,94104,37.789685,-122.401137
526,Plaid,San Francisco,CA,94104,37.789685,-122.401137
283,GoDaddy,San Francisco,CA,94102,37.789371,-122.409649
14,Accenture,San Francisco,CA,94105,37.788696,-122.399372
367,JUUL Labs,San Francisco,CA,94107,37.760795,-122.386129
541,Proto.io,San Francisco,CA,94105,37.78848,-122.400667
830,LoanSnap,San Francisco,CA,94102,37.789262,-122.409589
1069,Planful,Redwood City,CA,94065,37.520957,-122.256128
941,Inflection.com,Redwood City,CA,94065,37.521019,-122.256482
327,HotSchedules,San Francisco,CA,94105,37.788564,-122.398535
1086,Infosys,San Francisco,CA,94105,37.78869,-122.398695
810,Zoosk,San Francisco,CA,94105,37.782452,-122.409592
647,Spark Program,San Francisco,CA,94107,37.762571,-122.400835
443,Mindsource,Mountain View,CA,94043,37.399445,-122.046322
604,Scality,San Francisco,CA,94104,37.79206,-122.403706
1087,IBM,San Jose,CA,95141,37.195907,-121.748586
65,Ask Media Group,Oakland,CA,94607,37.803686,-122.275269
372,KBC Staffing,Oakland,CA,94607,37.803686,-122.275269
870,AspireIQ,San Francisco,CA,94111,37.794546,-122.402935
331,iCrossing,San Francisco,CA,94108,37.79327,-122.404348
755,Visby,San Francisco,CA,94107,37.780552,-122.397193
456,Motionloft,San Francisco,CA,94103,37.767304,-122.406142
678,Swrve,San Francisco,CA,94108,37.786345,-122.406709
809,Zinc,San Francisco,CA,94105,37.788242,-122.401051
760,Vonnda,San Francisco,CA,94105,37.788112,-122.401136
896,LocusLabs,Oakland,CA,94607,37.793706,-122.273894
706,The League,San Francisco,CA,94103,37.775041,-122.414533
784,Wonderware,San Francisco,CA,94133,37.805468,-122.406402
228,Endpoint Clinical,San Francisco,CA,94133,37.805468,-122.406402
707,The RealReal,San Francisco,CA,94133,37.805716,-122.405486
349,Intercom,San Francisco,CA,94105,37.788806,-122.400313
953,Marvell,Santa Clara,CA,95054,37.411865,-121.982146
797,Zapier,San Francisco,CA,94104,37.790047,-122.400874
170,Coinbase,San Francisco,CA,94104,37.790029,-122.40084
291,Grammarly,San Francisco,CA,94104,37.790047,-122.400874
748,Vero,San Francisco,CA,94104,37.790047,-122.400874
559,RazorFrog,San Francisco,CA,94105,37.787956,-122.397247
964,Palantir,Palo Alto,CA,94301,37.443844,-122.162189
599,Sauce Labs,San Francisco,CA,94107,37.780146,-122.396756
329,Hover,San Francisco,CA,94107,37.780243,-122.396684
109,Branch International,San Francisco,CA,94105,37.788866,-122.39821
425,Mattermark,San Francisco,CA,94105,37.78889,-122.398091
761,Voxbone,San Francisco,CA,94105,37.788866,-122.39821
854,Thorn,San Francisco,CA,94106,37.788891,-122.3981
687,Talkdesk,San Francisco,CA,94105,37.789059,-122.398104
434,MemSQL,San Francisco,CA,94107,37.778744,-122.397673
426,Mattermost,Palo Alto,CA,94301,37.44934,-122.15997
862,TalentSeer,Sunnyvale,Ca,94085,37.384261,-121.992675
1068,Pared,San Francisco,CA,94105,37.788099,-122.397105
715,Thunder,San Francisco,CA,94108,37.790809,-122.406076
663,Stitcher,San Francisco,CA,94105,37.787829,-122.396529
824,Dharma Labs,San Francisco,CA,94105,37.787829,-122.396529
398,LightStep,San Francisco,CA,94105,37.790503,-122.39903
613,Sephora,San Francisco,CA,94105,37.790503,-122.39903
1003,Front,San Francisco,CA,94107,37.777503,-122.39706
263,Front App,San Francisco,CA,94107,37.777503,-122.39706
462,MyFitnessPal,San Francisco,CA,94107,37.777503,-122.39706
244,Faire,San Francisco,CA,94107,37.782731,-122.392768
111,Brigade,San Francisco,CA,94107,37.780864,-122.395494
489,Offset Partners,Napa,CA,94559,38.293985,-122.283673
845,FileMaker,Santa Clara,CA,95054,37.406436,-121.983479
1084,Tata Consultancy Services,Santa Clara,CA,95054,37.406306,-121.976493
843,Brillio,Santa Clara,CA,95054,37.406306,-121.976493
100,BlueJeans,Mountain View,CA,94043,37.398873,-122.047364
578,Ridecell,San Francisco,CA,94107,37.781335,-122.396426
448,MixMax,San Francisco,CA,94107,37.782709,-122.393564
2,8tracks,San Francisco,CA,94114,37.765227,-122.429756
657,Stackshare,San Francisco,CA,94107,37.783523,-122.391715
588,Rollbar,San Francisco,CA,94107,37.783478,-122.391728
752,VigLink,San Francisco,CA,94111,37.795077,-122.401826
643,SoloLearn,Pleasanton,CA,94588,37.693842,-121.909886
332,Ideo,San Francisco,CA,94105,37.788464,-122.387357
739,Upsight,San Francisco,CA,94105,37.78698,-122.39446
281,Gliffy,San Francisco,CA,94107,37.783226,-122.39279
1052,Quizlet,San Francisco,CA,94107,37.783226,-122.39279
45,Amplitude,San Francisco,CA,94107,37.783181,-122.392966
859,Wind River,Alameda,CA,94501,37.781588,-122.261401
301,Gusto,San Francisco,CA,94107,37.78084,-122.39582
172,Coit Group,San Francisco,CA,94111,37.79521,-122.401154
222,Eero,San Francisco,CA,94105,37.788489,-122.396735
1085,Cognizant,Teaneck,NJ,7666,40.873268,-74.006006
660,Stash Invest,New York,NY,10018,40.753206,-73.989326
625,Simple Habit,San Francisco,CA,94107,37.780816,-122.395666
253,Fivestars,San Francisco,CA,94107,37.780816,-122.395666
852,Proxy,San Francisco,CA,94107,37.780816,-122.395666
275,Gigster,San Francisco,CA,94107,37.78084,-122.39582
666,Strava,San Francisco,CA,94107,37.780816,-122.395666
339,inDinero,San Francisco,CA,94133,37.798025,-122.402939
889,Veem,San Francisco,CA,94133,37.797972,-122.402886
46,Anaplan,San Francisco,CA,94107,37.7851,-122.398808
594,Salesforce,San Francisco,CA,94105,37.790503,-122.397215
585,Robert Half,San Francisco,CA,94111,37.794049,-122.397304
465,Narvar,San Francisco,CA,94105,37.791139,-122.396067
347,Instacart,San Francisco,CA,94105,37.791139,-122.396067
866,Zipline,Half Moon Bay,CA,94019,37.465188,-122.435223
801,Zendrive,San Francisco,CA,94107,37.781615,-122.395902
268,GarageScript,San Jose,CA,95110,37.325786,-121.898008
112,BrightBytes,San Francisco,CA,94107,37.783046,-122.394067
427,Matterport,San Francisco,CA,94105,37.789866,-122.399329
812,Zumper,San Francisco,CA,94108,37.787698,-122.404288
665,Stratim,San Francisco,CA,94103,37.779173,-122.405746
662,Stitch Labs,San Francisco,CA,94103,37.779173,-122.405746
231,Envoy,San Francisco,CA,94107,37.781752,-122.395705
66,ASUS,Fremont,CA,94538,37.461544,-121.923311
865,WorkBoard,Redwood City,CA,94063,37.50372,-122.212355
1074,Infogain,Los Gatos,CA,95032,37.229674,-121.971945
885,Riffyn,Oakland,CA,94607,37.801299,-122.274085
758,Voiceops,San Francisco,CA,94107,37.781507,-122.395228
897,Manifold,Oakland,CA,94607,37.800993,-122.274212
857,Tynker,Mountain View,CA,94040,37.404447,-122.112369
840,Tundra,San Francisco,CA,94111,37.796532,-122.403146
686,Talkable,San Francisco,CA,94103,37.765377,-122.421552
42,Amazon Web Services,San Francisco,Ca,94111,37.794573,-122.40194
960,NetApp,Sunnyvale,CA,94089,37.411384,-122.01254
423,MasterClass,San Francisco,CA,94107,37.77862,-122.395179
906,Airbase,San Francisco,CA,94107,37.77862,-122.395179
977,Upwork,San Francisco,CA,94107,37.77879,-122.395539
1077,Tascent,Los Gatos,CA,95032,37.229431,-121.971254
910,Customer Lobby,Oakland,CA,94612,37.804518,-122.272367
71,Avatier,Pleasanton,CA,94588,37.697076,-121.900639
832,Modern Health,San Francisco,CA,94133,37.799218,-122.405185
713,Thrive Global,San Francisco,CA,94107,37.781999,-122.395384
388,Leadspace,San Francisco,CA,94108,37.788505,-122.403884
1024,Mentor Graphics,Fremont,CA,94538,37.479393,-121.942169
446,MissionU,San Francisco,CA,94102,37.787278,-122.410924
445,Mira,Pleasanton,CA,94588,37.692439,-121.900639
1046,ThinkHR,Pleasanton,CA,94588,37.692439,-121.900639
20,AdStage,San Francisco,CA,94108,37.790365,-122.405118
309,Heap,San Francisco,CA,94107,37.78221,-122.395299
884,PubNub,San Francisco,CA,94107,37.782299,-122.395291
696,Teespring,San Francisco,CA,94107,37.78221,-122.395299
771,Weebly,San Francisco,CA,94107,37.78221,-122.395299
43,Ambient.ai,Palo Alto,CA,94301,37.447222,-122.158617
991,Brilliant,San Francisco,CA,94104,37.793608,-122.402614
779,Wizeline,San Francisco,CA,94104,37.793458,-122.402771
314,Hingeto,Oakland,CA,94607,37.800585,-122.274206
803,Zenput,San Francisco,CA,94103,37.781002,-122.406912
562,Red Bridge Internet,San Francisco,CA,94102,37.777158,-122.425696
150,Clara Analytics,Santa Clara,CA,95050,37.35087,-121.932689
1,3scale,San Francisco,CA,94107,37.774634,-122.398642
825,DiDi Labs,Mountain View,CA,94043,37.40184,-122.052942
837,Spin,San Francisco,CA,94105,37.790135,-122.397464
708,The Sourcery,San Francisco,CA,94105,37.790135,-122.397464
323,Horizons School of Technology,San Francisco,CA,94103,37.771581,-122.409606
90,Birst,San Francisco,CA,94105,37.791249,-122.397149
1040,SmartZip,Pleasanton,CA,94588,37.697023,-121.883922
1036,ServiceMax,Pleasanton,CA,94588,37.697023,-121.883922
204,Discord,San Francisco,CA,94107,37.763973,-122.401277
494,OpenDNS,San Francisco,CA,94107,37.77497,-122.398526
596,Samsara,San Francisco,CA,94107,37.764616,-122.401862
267,Galvanize,San Francisco,CA,94105,37.787601,-122.396643
299,GrowthX,San Francisco,CA,94105,37.787601,-122.396643
1014,Kintone,San Francisco,CA,94104,37.789731,-122.401906
695,TechSoup,San Francisco,CA,94107,37.77906,-122.394821
994,Cloudera,San Francisco,CA,94104,37.792699,-122.401684
147,Circle Medical,San Francisco,CA,94103,37.782141,-122.408098
633,SlashNext,Pleasanton,CA,94588,37.692513,-121.893005
877,Harmonic,San Jose,CA,95134,37.421136,-121.961086
745,Veeva,Pleasanton,CA,94588,37.690156,-121.895304
139,Ceres Imaging,Oakland,CA,94612,37.803616,-122.27108
350,interviewing.io,San Francisco,CA,94107,37.782399,-122.394087
533,Powerhouse,Oakland,CA,94612,37.806579,-122.268978
873,Crossover Hub,Fremont,CA,94538,37.508858,-121.970526
924,Craigslist Foundation,San Francisco,CA,NaN,37.78196,-122.40635
738,Upgrade,San Francisco,CA,94104,37.792798,-122.401375
308,Headspace,San Francisco,CA,94104,37.792792,-122.401422
568,ReferralExchange,San Francisco,CA,94108,37.790431,-122.404473
130,Capgemini,San Francisco,CA,94107,37.779352,-122.394737
509,Parsable,San Francisco,CA,94107,37.784312,-122.394425
320,Homebase,San Francisco,CA,94107,37.784273,-122.394471
690,TaskRabbit,San Francisco,CA,94107,37.784312,-122.394425
1063,Klarity Law,San Francisco,CA,94117,37.774146,-122.433904
636,SmartBiz Loans,San Francisco,CA,94104,37.793398,-122.403228
217,EasyPost,San Francisco,CA,94104,37.793398,-122.403228
163,Clover Network,Sunnyvale,CA,94085,37.386705,-122.03198
775,WeWork,San Francisco,CA,94105,37.789816,-122.396905
460,MuleSoft,San Francisco,CA,94105,37.789816,-122.396905
538,Product School,San Francisco,CA,94111,37.796319,-122.402347
335,Imgur,San Francisco,CA,94111,37.796319,-122.402347
756,Vitagene,San Francisco,CA,94107,37.779604,-122.394536
126,CallidusCloud,Dublin,CA,94568,37.70257,-121.875051
592,Saba Software,Dublin,CA,94568,37.703718,-121.873605
492,Onesignal,San Mateo,CA,94402,37.548326,-122.320274
117,Broadly,Oakland,CA,94612,37.80313,-122.270816
522,Pique Tea,San Francisco,CA,94114,37.751103,-122.433595
449,Mixpanel,San Francisco,CA,94105,37.788533,-122.395069
254,Fivetran,Oakland,CA,94612,37.80372,-122.270341
101,BlueVine,Redwood City,CA,94063,37.487126,-122.232107
252,Five9,San Ramon,CA,94583,37.769476,-121.967804
168,Codexis,Redwood City,CA,94063,37.500281,-122.216549
694,Techees Recruiting,San Francisco,CA,94111,37.791783,-122.398544
383,Kyokan,San Leandro,CA,94577,37.726286,-122.152051
561,Recurly,San Francisco,CA,94110,37.763815,-122.412607
645,Sony PlayStation,San Francisco,CA,94107,37.783888,-122.395409
220,Eaze,San Francisco,CA,94111,37.79539,-122.396107
144,Chegg,Santa Clara,CA,95054,37.388454,-121.972382
925,DataStax,Santa Clara,CA,95054,37.387153,-121.973883
348,Intelliswift,Newark,CA,94560,37.52388,-121.996495
956,Medallia,Palo Alto,CA,94306,37.425606,-122.139163
488,Odopod,San Francisco,CA,94102,37.777761,-122.422861
1021,Matchpoint Solutions,Pleasanton,CA,94588,37.684027,-121.90224
77,Bebo,San Francisco,CA,94103,37.781274,-122.403895
184,Criteo,New York,NY,10016,40.742901,-73.984138
874,Datrium,Sunnyvale,CA,94089,37.40639,-122.016012
1057,Descript,San Francisco,CA,94118,37.777746,-122.422654
820,Change,San Francisco,CA,94103,37.765052,-122.40226
179,Coursera,Mountain View,CA,94041,37.386873,-122.060787
366,JustAnswer,San Francisco,CA,94129,37.79964,-122.456665
909,Commure,San Francisco,CA,94107,37.780631,-122.394021
731,Twilio,San Francisco,CA,94105,37.788012,-122.39152
888,Tally,San Francisco,CA,94110,37.764494,-122.411951
766,Wanelo,San Francisco,CA,94110,37.764564,-122.41189
1006,Grand Rounds,San Francisco,CA,94107,37.782688,-122.398342
7,80Twenty,San Francisco,CA,94104,37.791722,-122.40202
402,Literably,San Francisco,CA,94103,37.764963,-122.406581
158,Cloud4Wi,San Francisco,CA,94103,37.781278,-122.402944
922,Cisco,San Jose,CA,95134,37.408175,-121.928128
368,Kaiser Permanente,Oakland,CA,94611,37.823492,-122.258122
796,Yodlee,Redwood City,CA,94065,37.537298,-122.254532
31,AKQA,San Francisco,CA,94107,37.782707,-122.398354
735,uBiome,San Francisco,CA,94103,37.773057,-122.404561
777,Wikia,San Francisco,CA,94107,37.782707,-122.398354
357,Iterable,San Francisco,CA,94107,37.782678,-122.398368
619,ShopPad,Oakland,CA,94612,37.811068,-122.265617
365,Juniper Square,San Francisco,CA,94104,37.792902,-122.400733
701,Tesla,Palo Alto,CA,94304,37.394838,-122.150389
501,Ouster,San Francisco,CA,94110,37.764397,-122.413721
247,Fin,San Francisco,CA,94104,37.793812,-122.400951
241,Extole,San Francisco,CA,94104,37.793812,-122.400951
710,Thirdlove,San Francisco,CA,94103,37.765667,-122.403145
951,MapR Technologies,San Jose,CA,95134,37.418436,-121.944978
386,Launch Darkly,Oakland,CA,94612,37.80614,-122.27157
681,Symantec,Mountain View,CA,94043,37.397614,-122.053924
774,WePay,Redwood City,CA,94063,37.49396,-122.227933
91,BitBucket,San Francisco,CA,94104,37.791355,-122.403396
1054,Atlassian,San Francisco,CA,94104,37.791008,-122.403322
57,Appodeal,San Francisco,CA,94110,37.76481,-122.412706
258,Formation,San Francisco,CA,94107,37.782762,-122.394848
732,Twitch,San Francisco,CA,94104,37.791025,-122.403217
527,Planet,San Francisco,CA,94103,37.773063,-122.411185
431,Medrio,San Francisco,CA,94104,37.792619,-122.400424
1012,JetFuel,San Francisco,CA,94103,37.773369,-122.410884
853,Retool,San Francisco,CA,94114,37.764695,-122.429561
692,Tech Liminal,Oakland,CA,94612,37.808926,-122.265351
78,Bedrock Analytics,Oakland,CA,94612,37.809245,-122.265106
911,Distru,Oakland,CA,94612,37.808372,-122.265387
30,Airware,San Francisco,CA,94104,37.793697,-122.401731
598,SAP,Palo Alto,CA,94304,37.398759,-122.146484
757,VMWare,Palo Alto,CA,94304,37.402086,-122.144617
336,Imperva,Redwood City,CA,94065,37.537772,-122.25518
677,Swing Talent,Oakland,CA,94612,37.804149,-122.26788
207,DIY,San Francisco,CA,94110,37.75903,-122.416221
583,Rithm School,San Francisco,CA,94110,37.763528,-122.4208
921,CipherCloud,San Jose,CA,95110,37.328862,-121.893598
680,Syllable.ai,Sunnyvale,CA,94087,37.369399,-122.035872
844,Diffbot,Menlo Park,CA,94025,37.457562,-122.176536
819,BlackBird,San Francisco,CA,94108,37.791246,-122.404357
676,SwiftStack,San Francisco,CA,94104,37.790643,-122.403057
346,Insikt,San Francisco,CA,94104,37.790643,-122.403057
295,Groove Labs,San Francisco,CA,94107,37.783836,-122.392073
875,Directly,San Francisco,CA,94107,37.783789,-122.39217
213,Dropbox,San Francisco,CA,94107,37.780811,-122.392494
704,The Athletic,San Francisco,CA,94104,37.792234,-122.401542
716,TIBCO Software,Palo Alto,CA,94304,37.407268,-122.145009
407,Logikcull,San Francisco,CA,94107,37.77686,-122.396108
58,Apptimize,San Francisco,CA,94107,37.77686,-122.396108
424,Matter,San Francisco,CA,94107,37.780427,-122.395991
618,Shopify,San Francisco,CA,94105,37.788585,-122.401273
358,Jobspring Partners,San Francisco,CA,94105,37.788445,-122.401534
256,Fond,San Francisco,CA,94105,37.788585,-122.401273
786,Workbridge Associates,San Francisco,CA,94105,37.788445,-122.401534
343,Insight Global,San Francisco,CA,94105,37.788445,-122.401534
575,Restless Bandit,San Francisco,CA,94105,37.788445,-122.401534
151,ClassPass,San Francisco,CA,94105,37.788585,-122.401273
363,Jumpshot,San Francisco,CA,94107,37.78411,-122.391727
839,Topology,San Francisco,CA,94110,37.760577,-122.416398
611,Sendwithus,San Francisco,CA,94110,37.760528,-122.416168
292,Greenfield Labs,Palo Alto,CA,94304,37.408727,-122.14585
628,Skedulo,San Francisco,CA,94111,37.797413,-122.401375
356,Ironclad,San Francisco,CA,94107,37.780079,-122.402791
851,Numerator,San Francisco,CA,94107,37.77918,-122.394507
466,Naytev,San Francisco,CA,94103,37.77795,-122.405417
390,Leap Motion,San Francisco,CA,94103,37.771717,-122.413551
968,Robinhood,Palo Alto,CA,94306,37.422211,-122.13708
81,Benevity,San Mateo,CA,94403,37.544091,-122.306726
493,OpenAI,San Francisco,CA,94110,37.762383,-122.414734
718,Townsquared,San Francisco,CA,94110,37.763825,-122.416855
76,Barracuda,Campbell,CA,95008,37.267651,-121.957931
393,LendingHome,San Francisco,CA,94104,37.792112,-122.40288
813,Zuora,San Mateo,CA,94403,37.540405,-122.298993
238,Evernote,Redwood City,CA,94063,37.49209,-122.222378
672,Sumo Logic,Redwood City,CA,94063,37.492762,-122.227852
15,Addepar,Mountain View,CA,94041,37.39267,-122.080849
679,Syapse,San Francisco,CA,94107,37.785676,-122.395843
518,Periscope Data,San Francisco,CA,94107,37.785233,-122.395693
317,Hired,San Francisco,CA,94103,37.785233,-122.395693
54,AppDynamics,San Francisco,CA,94107,37.785676,-122.395843
306,Handy,New York,NY,10003,40.721593,-73.983459
273,Genomic Health,Redwood City,CA,94063,37.498897,-122.218145
224,Elastic.co,San Francisco,CA,94105,37.789541,-122.394228
712,ThousandEyes,San Francisco,CA,94105,37.789527,-122.394276
177,Copper,San Francisco,CA,94105,37.789527,-122.394276
121,BuildZoom,San Francisco,CA,94105,37.789527,-122.394276
311,HelloSign,San Francisco,CA,94105,37.789527,-122.394276
205,Disqus,San Francisco,CA,94105,37.789527,-122.394276
926,Deem,San Francisco,CA,94105,37.789483,-122.394217
490,Okta,San Francisco,CA,94107,37.781405,-122.392179
671,StumbleUpon,San Francisco,CA,94107,37.781405,-122.392179
1042,Storm Ventures,Menlo Park,CA,94025,37.42359,-122.221003
1047,Trinity Ventures,Menlo Park,CA,94025,37.42359,-122.221003
997,Columbus Nova,Menlo Park,CA,94025,37.42359,-122.221003
990,Bright Capital,Menlo Park,CA,94025,37.42359,-122.221003
1035,Sequoia Capital,Menlo Park,CA,94025,37.42359,-122.221003
1010,Institutional Venture Partners,Menlo Park,CA,94025,37.42359,-122.221003
1025,Mohr Davidow Ventures,Menlo Park,CA,94025,37.42359,-122.221003
567,Redpoint Ventures,Menlo Park,CA,94025,37.42359,-122.221003
1033,Relay Ventures,Menlo Park,CA,94025,37.42359,-122.221003
1041,Sofinnova Ventures,Menlo Park,CA,94025,37.42359,-122.221003
939,Hewlett Packard,Palo Alto,CA,94304,37.414562,-122.146289
817,Bayside Solutions,San Ramon,CA,94583,37.768727,-121.968373
481,Notion,San Francisco,CA,94110,37.759409,-122.411109
917,unitQ,San Mateo,CA,94401,37.564618,-122.322962
304,HackerOne,San Francisco,CA,94104,37.792445,-122.402454
577,RGA Associates,San Francisco,CA,94104,37.792403,-122.402497
298,Grovo,San Francisco,CA,94104,37.792403,-122.402497
264,Fundbox,San Francisco,CA,94104,37.792442,-122.402219
455,Mosaic,Oakland,CA,94612,37.80875,-122.263705
197,Dealpath,San Francisco,CA,94104,37.793493,-122.400446
623,Sight Machine,San Francisco,CA,94133,37.798597,-122.402599
1056,Convex,San Francisco,CA,94107,37.781819,-122.392524
691,Teamable,San Francisco,CA,94103,37.764927,-122.419086
499,Oscar Health,New York,NY,10012,40.724552,-73.995391
644,Sonder,San Francisco,CA,94103,37.777507,-122.422741
579,Rigetti,Berkeley,CA,94710,37.852525,-122.290996
989,Battery Ventures,Menlo Park,CA,94025,37.421944,-122.21513
1023,Menlo Ventures,Menlo Park,CA,94025,37.421944,-122.21513
1038,Sierra Ventures,Menlo Park,CA,94025,37.421944,-122.21513
987,Altos Ventures,Menlo Park,CA,94025,37.421968,-122.214066
993,Charles River Ventures,Menlo Park,CA,94025,37.421968,-122.214066
1001,Draper Fisher Jurvetson,Menlo Park,CA,94025,37.421968,-122.214066
103,Bolt,San Francisco,CA,94103,37.776857,-122.408265
988,Andreessen Horowitz,Menlo Park,CA,94025,37.41973,-122.214244
1027,New Enterprise Associates,Menlo Park,CA,94025,37.419767,-122.21359
438,MetaVision,San Mateo,CA,94403,37.536121,-122.325787
940,Houzz,Palo Alto,CA,94301,37.445099,-122.160735
955,McAfee,Santa Clara,CA,95054,37.389291,-121.979214
1017,LeapYear,Berkeley,CA,94705,37.859214,-122.258919
1016,Kohlberg Kravis Roberts,Menlo Park,CA,94025,37.421086,-122.21216
620,Shutterfly,Redwood City,CA,94065,37.539416,-122.256659
56,AppNexus,New York,NY,10010,40.741487,-73.990992
62,Armory,San Mateo,CA,94401,37.56325,-122.325167
1039,Silver Lake Partners,Menlo Park,CA,94025,37.417814,-122.210348
992,Canaan Partners,Menlo Park,CA,94025,37.419687,-122.209616
1048,TriplePoint Capital,Menlo Park,CA,94025,37.419515,-122.209543
1020,Makena Capital Management,Menlo Park,CA,94025,37.419515,-122.209543
868,Incorta,San Mateo,CA,94403,37.536903,-122.324879
1015,Kleiner Perkins,Menlo Park,CA,94025,37.421271,-122.211292
550,Qwilt,Redwood City,CA,94065,37.524955,-122.257862
962,NVIDIA,Santa Clara,CA,95050,37.370837,-121.964022
22,Adyen,San Francisco,CA,94107,37.782608,-122.391772
1049,U.S. Venture Partners,Menlo Park,CA,94025,37.419632,-122.209057
149,Civil Maps,San Francisco,CA,94133,37.807678,-122.415314
1011,InterWest Partners,Menlo Park,CA,94025,37.421583,-122.208924
1026,Morgenthaler,Menlo Park,CA,94025,37.421583,-122.208924
269,GE Digital,San Ramon,CA,94583,37.766315,-121.961693
650,Splunk,San Francisco,CA,94107,37.783154,-122.391775
277,GitLab,San Francisco,CA,94104,37.791192,-122.401818
351,Intuit,Mountain View,CA,94043,37.431219,-122.097991
856,Truework,San Francisco,CA,94103,37.775773,-122.410486
83,BetterUp,San Francisco,CA,94103,37.775741,-122.410515
124,Cadence Design Systems,San Jose,CA,95134,37.396063,-121.919533
13,Accela,San Ramon,CA,94583,37.766261,-121.958243
70,Avast,Redwood City,CA,94063,37.485898,-122.233689
936,Globalfoundries,Santa Clara,CA,95054,37.415293,-121.974448
540,Proteus Digital Health,Redwood City,CA,94065,37.539077,-122.25728
437,MessageBird,San Francisco,CA,94107,37.778262,-122.394648
67,Atrium LTS,San Francisco,CA,94107,37.778262,-122.394648
746,Verbal + Visual,New York,NY,10011,40.738368,-73.993907
72,Avenue Code,San Francisco,CA,94108,37.786937,-122.405545
12,Abstract,San Francisco,CA,NaN,37.756034,-122.418592
705,The Hive,San Francisco,CA,94111,37.792964,-122.399598
318,Hiretual,Mountain View,CA,94043,37.421186,-122.098438
935,Gigya,Palo Alto,CA,94303,37.421046,-122.098583
635,Smarking,San Francisco,CA,94103,37.766784,-122.402589
381,Kong,San Francisco,CA,94108,37.788405,-122.405977
330,Hustle,San Francisco,CA,94108,37.790504,-122.404232
143,Checkr,San Francisco,CA,94110,37.762905,-122.408725
985,Accel-KKR,Menlo Park,CA,94025,37.42175,-122.204843
811,Zume Pizza,Mountain View,CA,94043,37.399147,-122.084199
453,Mondo,San Francisco,CA,94104,37.79168,-122.402349
880,Lambda School,San Francisco,CA,94104,37.79168,-122.402349
802,Zenefits,San Francisco,CA,94107,37.7831,-122.391019
371,Karuna Health,San Francisco,CA,94102,37.782584,-122.411252
654,Springboard,San Francisco,CA,94102,37.782569,-122.411148
722,Tray.io,San Francisco,CA,94107,37.783128,-122.394671
113,Brightidea,San Francisco,CA,94111,37.797974,-122.397541
307,Haven,San Francisco,CA,94108,37.788264,-122.403713
1004,GGV Capital,Menlo Park,CA,94025,37.422068,-122.203026
1044,The Blackstone Group,Menlo Park,CA,94025,37.422068,-122.203026
846,Katerra,Menlo Park,CA,94025,37.422068,-122.203026
44,AMD,Santa Clara,CA,95054,37.382925,-121.970384
1022,Mayfield Fund,Menlo Park,CA,94025,37.423162,-122.205333
1082,MetricStream,Palo Alto,CA,94303,37.448524,-122.118314
505,Palo Alto Staffing,Palo Alto,CA,94303,37.448524,-122.118314
1043,Tempo Automation,San Francisco,CA,94103,37.768627,-122.40965
971,Sila Nanotechnologies,Alameda,CA,94501,37.786994,-122.277351
653,SpotX,New York,NY,10016,40.744385,-73.987066
296,Groupon,Santa Clara,CA,95054,37.382589,-121.96944
698,Teleport,San Francisco,CA,94115,37.792212,-122.434802
736,Udacity,Mountain View,CA,94040,37.399322,-122.107764
1037,Shasta Ventures,Menlo Park,CA,94025,37.422654,-122.203971
932,EMC Data Domain,Santa Clara,CA,95054,37.39035,-121.970629
1009,Highland Capital Partners,Menlo Park,CA,94025,37.422643,-122.203958
986,Altimeter Capital,Menlo Park,CA,94025,37.422643,-122.203958
999,DCM Ventures,Menlo Park,CA,94025,37.422643,-122.203958
322,Hoodline,San Francisco,CA,94110,37.758335,-122.412322
1030,Onset Ventures,Menlo Park,CA,94025,37.423485,-122.203901
514,PeopleGrove,San Francisco,CA,94108,37.788168,-122.406508
249,Fingerprint Digital,San Francisco,CA,94108,37.788168,-122.406508
621,Sibly,Redwood City,CA,94063,37.486231,-122.230866
265,FundersClub,San Francisco,CA,94108,37.790315,-122.404185
703,Thalmic Labs,San Francisco,CA,94107,37.759864,-122.388784
536,Premier Talent Partners,San Francisco,CA,94104,37.791367,-122.40288
138,CBS Interactive,San Francisco,CA,94105,37.786512,-122.397038
904,Wootric,San Francisco,CA,94104,37.792601,-122.401286
471,Netlify,San Francisco,CA,94107,37.760272,-122.388098
805,Zenysis,San Francisco,CA,94107,37.760272,-122.388098
516,Perforce,Alameda,CA,94501,37.770875,-122.238889
353,Invoice2go,Redwood City,CA,94063,37.486067,-122.230423
19,AdRoll,San Francisco,CA,94110,37.760419,-122.41325
892,Zero Financial,San Francisco,CA,94111,37.793572,-122.399339
52,App Annie,San Francisco,CA,94108,37.787754,-122.404015
1031,Parabola,San Francisco,CA,94108,37.789151,-122.405004
750,Via Transportation,New York,NY,10001,40.743929,-73.988172
776,Wheelwell,San Francisco,CA,94109,37.79645,-122.424052
1007,Greylock Partners,Menlo Park,CA,94025,37.424218,-122.194856
300,Gumroad,San Francisco,CA,94103,37.76945,-122.42205
552,Radius,San Francisco,CA,94104,37.790841,-122.40128
404,LiveRamp,San Francisco,CA,94104,37.790869,-122.401228
1008,Handshake,San Francisco,CA,94104,37.790886,-122.401209
432,Meltwater,San Francisco,CA,94104,37.790984,-122.401595
403,Lithium Technologies,San Francisco,CA,94104,37.790841,-122.40128
154,ClearMetal,San Francisco,CA,94104,37.790882,-122.401552
272,General Assembly,San Francisco,CA,94104,37.790882,-122.401552
893,d2iq,San Francisco,CA,94104,37.790928,-122.401199
412,Machine Zone,Palo Alto,CA,94303,37.449965,-122.120976
998,Craigslist,San Francisco,CA,94108,37.790033,-122.404521
700,Terminus Software,San Francisco,CA,94108,37.790032,-122.404488
142,Chartio,San Francisco,CA,94108,37.790209,-122.403499
400,LinkedIn,San Francisco,CA,94105,37.786403,-122.398322
512,PayPal,San Jose,CA,95131,37.376851,-121.922733
697,TEKsystems,San Francisco,CA,94105,37.790388,-122.392259
667,Streak CRM,San Francisco,CA,94105,37.790388,-122.392259
210,Docusign,San Francisco,CA,94105,37.790344,-122.392177
475,NexTravel,San Francisco,CA,94108,37.790169,-122.404171
185,Crowdcast,San Francisco,CA,94108,37.790169,-122.404171
759,Volt Workforce Solutions,Fremont,CA,94538,37.555363,-121.975903
907,Better Mortgage,Oakland,CA,94612,37.811184,-122.26756
8,99designs,Oakland,CA,94612,37.811184,-122.26756
648,Sparkart,Oakland,CA,94612,37.811203,-122.267396
984,5AM Ventures,Menlo Park,CA,94025,37.422774,-122.199215
1018,Lightspeed Venture Partners,Menlo Park,CA,94025,37.422774,-122.199215
1028,Nexus Venture Partners,Menlo Park,CA,94025,37.422774,-122.199215
1045,The Westly Group,Menlo Park,CA,94025,37.422774,-122.199215
942,Intel,Santa Clara,CA,95054,37.387524,-121.96366
617,Shipt,San Francisco,CA,94103,37.784814,-122.405614
162,Clover Health,San Francisco,CA,94103,37.784814,-122.405614
595,Salon Media Group,San Francisco,CA,94103,37.784814,-122.405614
233,EQ Recruiting,San Francisco,CA,94123,37.798851,-122.435599
1005,GI Partners,Menlo Park,CA,94025,37.423064,-122.198505
237,Everlane,San Francisco,CA,94110,37.762589,-122.415424
369,Kapor Center,Oakland,CA,94612,37.810608,-122.266877
767,Watsi,San Francisco,CA,94110,37.76316,-122.415519
1013,Khosla Ventures,Menlo Park,CA,94025,37.425613,-122.193384
793,Yapstone,Walnut Creek,CA,94596,37.90866,-122.066521
1002,Farmstead,San Francisco,CA,94110,37.763498,-122.412739
614,Shazam,Redwood City,CA,94063,37.48683,-122.228591
528,PlanGrid,San Francisco,CA,94110,37.763037,-122.419242
125,Cadre Talent,San Francisco,CA,94123,37.800405,-122.438155
905,turnitin,Oakland,CA,94612,37.810394,-122.265898
894,Everlaw,Oakland,CA,94612,37.81028,-122.266009
871,ColorTokens,Santa Clara,CA,95054,37.409514,-121.961797
342,Informatica,Redwood City,CA,94063,37.511302,-122.204801
688,Tanium,Emeryville,CA,94608,37.839364,-122.29897
140,Change Healthcare,Emeryville,CA,94608,37.839364,-122.29897
63,Art.com,Emeryville,CA,94608,37.839364,-122.29897
506,Pandora,Oakland,CA,94612,37.810138,-122.266349
502,Outlier AI,Oakland,CA,94612,37.810138,-122.266349
976,TuneIn,San Francisco,CA,94107,37.77801,-122.39253
225,Electronic Arts,Redwood City,CA,94065,37.52328,-122.254142
560,ReadMe,San Francisco,CA,94108,37.790011,-122.404115
450,Mode Analytics,San Francisco,CA,94103,37.766906,-122.406888
770,Webflow,San Francisco,CA,94103,37.766906,-122.406888
32,Aktana,San Francisco,CA,94102,37.786667,-122.40834
980,Xilinx,San Jose,CA,95124,37.252624,-121.933771
947,Lab126,Cupertino,CA,95014,37.321379,-122.030751
129,Canvas Medical,San Francisco,CA,94122,37.763298,-122.480026
833,NexGenT,San Jose,CA,95110,37.371113,-121.925578
530,Poshmark,Redwood City,CA,94065,37.521035,-122.253951
221,eBay,San Jose,CA,95125,37.295337,-121.926095
414,Magoosh,Berkeley,CA,94704,37.871034,-122.271016
658,Stamen Design,San Francisco,CA,94103,37.764766,-122.419671
675,Swiftly,San Francisco,CA,94105,37.791226,-122.391966
631,Slalom Consulting,San Francisco,CA,94105,37.791226,-122.391966
148,CircleCI,San Francisco,CA,94105,37.791263,-122.392015
958,Metaswitch Networks,San Francisco,CA,94103,37.7669,-122.407192
544,Qualia,San Francisco,CA,94105,37.790966,-122.394737
337,Indeed,San Francisco,CA,94105,37.790966,-122.394737
279,Gladly,San Francisco,CA,94111,37.793034,-122.39903
167,CodeSignal,San Francisco,CA,94111,37.793034,-122.39903
157,Climate Corporation,San Francisco,CA,94103,37.785067,-122.399868
131,Capital One,San Francisco,CA,94103,37.785067,-122.399868
743,Vaco,Walnut Creek,CA,94596,37.905996,-122.064968
563,Red Oak Technologies,San Jose,CA,95110,37.369715,-121.922733
159,Cloudbees,San Jose,CA,95110,37.369715,-121.922733
589,Roofstock,Oakland,CA,94612,37.809423,-122.268446
627,Sizmek,Redwood City,CA,94063,37.510734,-122.203471
290,Gracenote,Emeryville,CA,94608,37.837928,-122.300742
79,Beezwax Datatools,Oakland,CA,94612,37.805766,-122.272202
271,GenapSys,Redwood City,CA,94063,37.50446,-122.219206
565,Reddit,San Francisco,CA,94102,37.782543,-122.410516
1059,DuckDuckGo,Paoli,PA,19301,40.041099,-75.486881
581,RingCentral,Belmont,CA,94002,37.5109,-122.306596
355,Iris Automation,San Francisco,CA,94103,37.768352,-122.41689
511,Pathstream,San Francisco,CA,94105,37.78872,-122.398384
709,The Trade Desk,New York,NY,10016,40.746003,-73.982451
482,Nova Credit,San Francisco,CA,94103,37.783128,-122.407763
459,Mozilla,San Francisco,CA,94105,37.789475,-122.389293
1065,Ockam,San Francisco,CA,94111,37.794788,-122.39841
684,Talener,San Francisco,CA,94111,37.794788,-122.39841
89,Binti,Oakland,CA,94612,37.807875,-122.265068
136,CashBet,Oakland,CA,94612,37.807846,-122.265079
417,Mainz Brady Group,Oakland,CA,94612,37.807846,-122.265079
483,npm Inc,Oakland,CA,94612,37.807846,-122.265079
294,Grin,Sacramento,CA,95811,38.572115,-121.507752
251,FitBit,San Francisco,CA,94105,37.789873,-122.394781
670,StubHub,San Francisco,CA,94105,37.789873,-122.394781
208,DNAnexus,Mountain View,CA,94040,37.393674,-122.099278
135,Carta,Palo Alto,CA,94306,37.426587,-122.138655
764,Wake,San Francisco,CA,94103,37.76999,-122.425351
374,Khan Academy,Mountain View,CA,94043,37.421321,-122.088694
262,FreeWire Technologies,San Leandro,CA,94577,37.7153,-122.179217
41,Amazon,East Palo Alto,CA,94303,37.459056,-122.142821
943,Jasper Wireless,Mountain View,CA,94043,37.38628,-122.051355
472,New Relic,San Francisco,CA,94105,37.791445,-122.392967
60,Aptly,San Francisco,CA,94107,37.781016,-122.39507
725,Triplebyte,San Francisco,CA,94107,37.778621,-122.391806
1070,Sqreen,San Francisco,CA,94107,37.778636,-122.391813
507,Panoply,San Francisco,CA,94107,37.778636,-122.391813
570,Reforge,San Francisco,CA,94102,37.771349,-122.426463
829,Health Gorilla,Sunnyvale,CA,94086,37.377107,-122.014039
763,Vungle,San Francisco,CA,94107,37.779731,-122.401798
164,Coda,San Francisco,CA,94107,37.776597,-122.391949
406,Lob,San Francisco,CA,94107,37.776657,-122.391842
668,Stripe,San Francisco,CA,94107,37.776503,-122.392038
410,Lyft,San Francisco,CA,94107,37.776503,-122.392038
717,Tophatter,San Francisco,CA,94107,37.776597,-122.391949
1064,Lohika,San Mateo,CA,94402,37.553927,-122.299989
639,SnapLogic,San Mateo,CA,94402,37.553927,-122.299989
229,enSilo,San Francisco,CA,94105,37.786907,-122.398658
586,Rocket Lawyer,San Francisco,CA,94105,37.791002,-122.393409
864,Tipalti,San Mateo,CA,94404,37.556738,-122.281605
1061,Hivemapper,Burlingame,CA,94010,37.593663,-122.388098
798,Zazzle,Redwood City,CA,94063,37.51098,-122.201431
601,Say Media,San Francisco,CA,94107,37.779373,-122.392617
259,Forward,San Francisco,CA,94104,37.790039,-122.403645
587,RocketSpace,San Francisco,CA,94104,37.791899,-122.400667
744,ValiMail,San Francisco,CA,94104,37.790773,-122.401906
603,Scalable Press,San Francisco,CA,94104,37.790773,-122.401906
215,Dynata,San Francisco,CA,94104,37.790776,-122.402103
420,Marqeta,Oakland,CA,94612,37.81136,-122.262597
555,RaiseMe,San Francisco,CA,94110,37.763869,-122.419088
394,LendUp,Oakland,CA,94612,37.807218,-122.269279
883,Oderful,San Francisco,CA,94123,37.798198,-122.42813
961,Nutanix,San Jose,CA,95112,37.367681,-121.918126
1067,OutreachCircle,Los Altos,CA,94022,37.377091,-122.110261
849,Nextgen Technologies,San Jose,CA,95112,37.368505,-121.915417
1071,Wiser Solutions,San Mateo,CA,94402,37.551741,-122.314051
200,Design Action Collective,Oakland,CA,94612,37.806559,-122.267826
375,Kickstart Coding,Oakland,CA,94612,37.807053,-122.269864
428,Mayvenn,Oakland,CA,94612,37.806403,-122.268092
344,Insight Recruiting,San Francisco,CA,94111,37.805502,-122.405183
1073,Roku,Los Gatos,CA,95032,37.261103,-121.961486
869,PARISOMA,San Francisco,CA,94103,37.773624,-122.41588
134,Carrot Fertility,San Francisco,CA,94107,37.779816,-122.392259
558,RapidAPI,San Francisco,CA,94107,37.779816,-122.392259
855,Toole Design,Oakland,CA,94612,37.806636,-122.270002
73,BabyCenter,San Francisco,CA,94107,37.777601,-122.398012
74,Babylist,Oakland,CA,94612,37.807139,-122.27281
242,Fabric Genomics,Oakland,CA,94612,37.806374,-122.270684
463,Mynd,Oakland,CA,94612,37.806374,-122.270684
500,OSIsoft,San Leandro,CA,94577,37.72122,-122.161542
192,Databricks,San Francisco,CA,94105,37.791365,-122.393741
838,Stellar,San Francisco,CA,94110,37.76401,-122.418853
807,Zicasso,Mountain View,CA,94040,37.390265,-122.092123
881,MediaMonks,San Francisco,CA,94105,37.787108,-122.399067
1080,Acquia,San Francisco,CA,94105,37.787108,-122.399067
64,Asana,San Francisco,CA,94103,37.767534,-122.411183
773,WellnessFX,San Francisco,CA,94103,37.767617,-122.410872
389,Leanplum,San Francisco,CA,94103,37.767534,-122.411183
236,Eventbrite,San Francisco,CA,94103,37.78238,-122.405225
630,Slack,San Francisco,CA,94103,37.78238,-122.405225
674,Swift Navigation,San Francisco,CA,94103,37.773495,-122.417794
94,Bleacher Report,San Francisco,CA,94108,37.789499,-122.404017
1062,Joro,Oakland,CA,94612,37.804745,-122.267597
1055,1528 Webster,Oakland,CA,94612,37.804745,-122.267597
334,iHear Medical,San Leandro,CA,94578,37.697558,-122.129672
171,CoInspect,San Francisco,CA,94103,37.771857,-122.414584
250,First Round Capital,San Francisco,CA,94103,37.774833,-122.414905
174,Comfy,Oakland,CA,94612,37.804838,-122.268901
520,Phone2Action,Arlington,VA,22209,38.894398,-77.074594
762,VSCO,Oakland,CA,94612,37.80533,-122.270368
405,Livongo,Mountain View,CA,94041,37.39242,-122.071804
872,Contentful,San Francisco,CA,94105,37.791767,-122.393586
720,Tradecraft,San Francisco,CA,94105,37.786733,-122.400867
651,Spotify,New York,NY,10007,40.710289,-74.01229
25,Affinity,San Francisco,CA,94133,37.796981,-122.404782
842,Zipcar,San Mateo,CA,94401,37.567466,-122.325692
554,Rainmakers,San Francisco,CA,94105,37.786086,-122.400017
297,Grove Collaborative,San Francisco,CA,94109,37.790038,-122.419915
836,Skupos,San Francisco,CA,94109,37.790038,-122.419915
216,Earnest,San Francisco,CA,94103,37.775228,-122.417563
656,Square,San Francisco,CA,94103,37.775231,-122.417528
734,Uber,San Francisco,CA,94103,37.775231,-122.417528
235,Even.com,Oakland,CA,94612,37.804701,-122.270471
209,Docker,San Francisco,CA,94107,37.780151,-122.391987
1075,280 Group,Los Gatos,CA,95030,37.220624,-121.985589
887,Sourcegraph,San Francisco,CA,94105,37.786816,-122.40049
584,Riviera Partners,San Francisco,CA,94103,37.774847,-122.415168
97,BloomThat,San Francisco,CA,94107,37.751824,-122.389362
310,HeartFlow,Redwood City,CA,94063,37.51365,-122.199525
927,Delphix,Redwood City,CA,94063,37.513745,-122.199786
108,Branch,Redwood City,CA,94063,37.51365,-122.199525
61,Apttus,San Mateo,CA,94404,37.556081,-122.288161
266,Gainsight,Redwood City,CA,94065,37.535116,-122.258255
352,Invitae,San Francisco,CA,94103,37.76683,-122.401309
794,Yelp,San Francisco,CA,94105,37.786662,-122.399972
10,2600Hz,San Francisco,CA,94108,37.787935,-122.405029
903,Seismic,San Francisco,CA,94105,37.787305,-122.399372
515,Percolate,San Francisco,CA,94105,37.787305,-122.399372
590,Runway Incubator,San Francisco,CA,94103,37.776769,-122.416616
792,Yammer,San Francisco,CA,94103,37.776769,-122.416616
714,Thumbtack,San Francisco,CA,94103,37.776769,-122.416616
442,Microsoft,San Francisco,CA,94103,37.776769,-122.416616
733,Twitter,San Francisco,CA,94103,37.776834,-122.416376
930,Egnyte,Mountain View,CA,94043,37.409204,-122.083073
782,Womply,San Francisco,CA,94107,37.779826,-122.391025
607,Scripted,San Francisco,CA,94107,37.781005,-122.397089
452,Modis,San Francisco,CA,94105,37.791554,-122.394095
719,Traction,San Francisco,CA,94109,37.790485,-122.419255
827,GetThru,Oakland,CA,94612,37.8039,-122.270794
5,21Tech,Oakland,CA,94612,37.8039,-122.270794
116,Broadcom,San Jose,CA,95131,37.386135,-121.900328
612,Sentry,San Francisco,CA,94107,37.783991,-122.397363
900,Rockbot,Oakland,CA,94612,37.803816,-122.271335
485,Nuro,Mountain View,CA,94043,37.410376,-122.081143
123,C3,Redwood City,CA,94063,37.513716,-122.201786
359,Jobvite,San Mateo,CA,94402,37.554714,-122.317245
751,Vidado,Oakland,CA,94607,37.794857,-122.273891
203,Digitalist Global,San Francisco,CA,94105,37.791908,-122.393852
75,Backerkit,San Francisco,CA,94103,37.773998,-122.410834
454,MoogSoft,San Francisco,CA,94111,37.802896,-122.402254
789,xMatters,San Ramon,CA,94583,37.772877,-121.959513
155,Clever,San Francisco,CA,94103,37.776408,-122.413882
145,Chewse,San Francisco,CA,94103,37.775724,-122.412707
790,Xoriant,Sunnyvale,CA,94089,37.404943,-121.987639
39,AltSchool,San Francisco,CA,94103,37.774189,-122.410479
226,Elegant Themes,San Francisco,CA,94103,37.775624,-122.411781
569,Reflektive,San Francisco,CA,94107,37.779858,-122.390665
107,Braintree,San Francisco,CA,94107,37.77984,-122.390637
230,Entelo,San Francisco,CA,94105,37.791833,-122.394431
622,Sift Science,San Francisco,CA,94105,37.791833,-122.394431
440,Metric Insights,San Francisco,CA,94103,37.775104,-122.415275
899,Renew Financial,Oakland,CA,94607,37.803463,-122.272345
908,Clorox,Oakland,CA,94612,37.803463,-122.272345
435,Mende Design,San Francisco,CA,94103,37.77471,-122.41009
689,Taos,San Jose,CA,95134,37.395928,-121.931578
551,Radical Designs,Oakland,CA,94612,37.80512,-122.276975
186,Cruise Automation,San Francisco,CA,94103,37.770038,-122.409703
284,Gong.io,San Mateo,CA,94403,37.546157,-122.290233
524,Pixar,Emeryville,CA,94608,37.832592,-122.28372
122,Bukwild,Sacramento,CA,95814,38.582053,-121.505066
682,SyncFab,San Leandro,CA,94577,37.725249,-122.155549
602,Scal.io,San Francisco,CA,94108,37.788109,-122.403763
4,15Five,San Francisco,CA,94103,37.781714,-122.403236
850,Nuance Communications,Sunnyvale,CA,94085,37.37944,-121.997339
461,Mux,San Francisco,CA,94102,37.779224,-122.414381
479,NoRedInk,San Francisco,CA,94105,37.787593,-122.399686
274,Getaround,San Francisco,CA,94103,37.77413,-122.40766
495,Opendoor,San Francisco,CA,94105,37.787072,-122.400451
211,DoorDash,San Francisco,CA,94105,37.787243,-122.40054
408,Looker,San Francisco,CA,94103,37.774367,-122.407404
806,ZeroCater,San Francisco,CA,94107,37.781289,-122.396682
1083,Switchboard Software,San Francisco,CA,94104,37.79154,-122.401103
110,Brex,San Francisco,CA,94104,37.791425,-122.401038
1032,Procore Technologies,Alameda,CA,94502,37.727646,-122.231974
768,WayUp,New York,NY,10001,40.744976,-73.992422
328,Hotwire,San Francisco,CA,94104,37.791437,-122.400546
749,Vevo,San Francisco,CA,94104,37.791437,-122.400546
214,Duncan Channon,San Francisco,CA,94104,37.79148,-122.400593
975,thredUP,San Francisco,CA,94104,37.79152,-122.400593
945,Juniper Networks,Sunnyvale,CA,94089,37.407504,-122.029189
572,Remix,San Francisco,CA,94103,37.777616,-122.410352
785,Woopra,San Francisco,CA,94103,37.771106,-122.409152
901,Vivun,Oakland,CA,94607,37.802803,-122.272921
1019,Lucasfilm,San Francisco,CA,94129,37.800434,-122.450001
564,Redbubble,San Francisco,CA,94104,37.79005,-122.402659
965,POPSUGAR,San Francisco,CA,94104,37.789817,-122.40255
608,Securly,San Jose,CA,95113,37.337659,-121.894104
68,Autodesk,San Rafael,CA,94903,38.005402,-122.530873
169,Coffee Meets Bagel,San Francisco,CA,94105,37.785333,-122.408147
35,AlienVault,San Mateo,CA,94403,37.545105,-122.290819
96,Bloc,San Francisco,CA,94104,37.790218,-122.402723
487,Oath,San Francisco,CA,94123,37.781888,-122.406155
895,Gravitational,Oakland,CA,94607,37.790432,-122.269155
1051,Zerodown,San Francisco,CA,94105,37.788595,-122.400989
132,Carbon,Redwood City,CA,94063,37.487369,-122.209545
1053,Auth0,Bellevue,WA,98004,47.61782,-122.195861
972,Space Systems Loral,Palo Alto,CA,94303,37.429347,-122.10886
396,Liftopia,San Francisco,CA,94103,37.780919,-122.411399
629,Skillz,San Francisco,CA,94103,37.780945,-122.411377
593,Saildrone,Alameda,CA,94501,37.782828,-122.305146
891,ZEIT,San Francisco,CA,94133,37.7978,-122.405305
176,Compology,San Francisco,CA,94103,37.771769,-122.407331
212,DroneDeploy,San Francisco,CA,94103,37.771793,-122.4074
1034,Seagate,Cupertino,CA,95014,37.320788,-122.031617
970,Seagate Technology,Cupertino,CA,95014,37.320788,-122.031617
659,Starcity,San Francisco,CA,94133,37.797508,-122.405181
800,Zendesk,San Francisco,CA,94103,37.78158,-122.410444
161,Cloudflare,San Francisco,CA,94107,37.780223,-122.390587
605,Scalyr,San Mateo,CA,94401,37.566047,-122.325402
382,KPCB,San Francisco,CA,94107,37.781277,-122.393741
178,CoreOS,San Francisco,CA,94105,37.787412,-122.400224
409,Luma Health,San Francisco,CA,94104,37.790434,-122.402526
973,SurveyMonkey,Palo Alto,CA,94301,37.444478,-122.165316
788,Xero,San Francisco,CA,94111,37.800154,-122.401883
517,Performance Horizon,San Francisco,CA,94111,37.793462,-122.398097
640,Snappr,San Francisco,CA,94111,37.792978,-122.397876
473,Newfront Insurance,San Francisco,CA,94105,37.788117,-122.39921
969,Sandisk,Milpitas,CA,95035,37.417533,-121.92248
967,reputation.com,Redwood City,CA,94063,37.487976,-122.224383
384,Landor,San Francisco,CA,94111,37.800912,-122.400573
683,Synchrony,San Francisco,CA,94105,37.789152,-122.397614
470,Netflix,Los Gatos,CA,95032,37.259575,-121.962753
280,Glassdoor,Mill Valley,CA,94941,37.880139,-122.51452
641,Snowflake Computing,San Mateo,CA,94401,37.566551,-122.325004
983,Zscaler,San Jose,CA,95134,37.415951,-121.947837
498,Oracle,Redwood City,CA,94065,37.530705,-122.26242
95,Blend,San Francisco,CA,94104,37.790377,-122.401862
115,BrightTALK,San Francisco,CA,94104,37.789941,-122.40211
638,Snapdocs,San Francisco,CA,94104,37.790377,-122.401862
959,MongoDB,Palo Alto,CA,94301,37.442041,-122.161195
609,Segment,San Francisco,CA,94111,37.793949,-122.398062
491,OneLogin,San Francisco,CA,94111,37.794004,-122.398003
202,Dialpad,San Francisco,CA,94111,37.794004,-122.398003
312,Helpshift,San Francisco,CA,94104,37.791479,-122.399947
37,Alloy,San Francisco,CA,94107,37.780521,-122.396507
1058,Dokkio,San Mateo,CA,94403,37.551425,-122.291173
723,trendmedia,San Francisco,CA,94104,37.790099,-122.400751
778,Wish,San Francisco,CA,94104,37.790446,-122.401154
429,McKesson,San Francisco,CA,94104,37.788765,-122.402747
661,Stitch Fix,San Francisco,CA,94104,37.789205,-122.403442
496,Opentable,San Francisco,CA,94104,37.789468,-122.402935
834,Prifina,San Francisco,CA,94105,37.791047,-122.400047
313,Hims,San Francisco,CA,94129,37.800184,-122.44982
261,Founders Fund,San Francisco,CA,94129,37.800184,-122.44982
804,Zenreach,San Francisco,CA,94129,37.800322,-122.449951
642,SoFi,San Francisco,CA,94129,37.800322,-122.449951
340,Industrial Light & Magic,San Francisco,CA,94129,37.800184,-122.44982
954,Maverick Capital,San Francisco,CA,94129,37.798845,-122.449338
234,Equinix,Redwood City,CA,94065,37.527344,-122.261179
243,Facebook,Menlo Park,CA,94025,37.484377,-122.148304
245,Fanatics,San Mateo,CA,94403,37.542249,-122.293545
826,Fuzzy,San Francisco,CA,NaN,37.774929,-122.419415
783,Wonderschool,San Francisco,CA,NaN,37.774929,-122.419415
841,WellPay,San Mateo,CA,NaN,37.562992,-122.325525
741,UrbanSitter,San Francisco,CA,NaN,37.774929,-122.419415
646,Sourceress,San Francisco,CA,NaN,37.774929,-122.419415
591,Rylo,San Francisco,CA,NaN,37.774929,-122.419415
847,Mission Lane,San Francisco,CA,NaN,37.774929,-122.419415
422,Massdrop,San Francisco,CA,NaN,37.774929,-122.419415
305,Hammerhead,San Francisco,CA,NaN,37.774929,-122.419415
278,Givecampus,San Francisco,CA,NaN,37.774929,-122.419415
219,Eatsa,San Francisco,CA,NaN,37.774929,-122.419415
198,Deepnote,San Francisco,CA,NaN,37.774929,-122.419415
146,Chime,San Francisco,CA,NaN,37.774929,-122.419415
105,Boxbot,Oakland,CA,NaN,37.804364,-122.271114
1050,WorkPatterns,San Francisco,CA,NaN,37.774929,-122.419415
360,Joy,San Francisco,CA,NaN,37.774929,-122.419415
902,Ascend,San Jose,CA,NaN,37.338208,-121.886329
693,TechConnexion,San Francisco,CA,NaN,37.774929,-122.419415
634,Slow Ventures,San Francisco,CA,NaN,37.774929,-122.419415
615,Shift.org,San Francisco,CA,NaN,37.774929,-122.419415
582,Riot Games,San Francisco,CA,NaN,37.783711,-122.427614
966,Qwil,San Francisco,CA,NaN,37.774929,-122.419415
542,Pusher,San Francisco,CA,NaN,37.774929,-122.419415
535,Pramp,San Francisco,CA,NaN,37.774929,-122.419415
1066,Oura,San Francisco,CA,NaN,37.774929,-122.419415
848,NextGen America,San Francisco,CA,NaN,37.774929,-122.419415
882,Moonlight,San Francisco,CA,NaN,37.774929,-122.419415
915,Mercury,San Francisco,CA,NaN,37.774929,-122.419415
957,Mentor Graphics Inc,46871 Bayside Pkwy,CA,NaN,37.479393,-121.942169
415,Mailchimp,Oakland,CA,NaN,37.804364,-122.271114
411,Lyte,San Francisco,CA,NaN,37.774929,-122.419415
950,Lucasfilm Ltd,1110 O'Reilly Ave,Sa,NaN,37.800434,-122.450001
949,Lookout,3600 16th St,Sa,NaN,37.76438,-122.433318
378,KittyHawk,San Francisco,CA,NaN,37.774929,-122.419415
370,Kapwing,San Francisco,CA,NaN,37.774929,-122.419415
914,Jane Technologies,Santa Cruz,CA,NaN,36.974117,-122.030796
938,Grand Rounds Inc.,370 3rd St,Sa,NaN,37.782688,-122.398342
288,Google,Mountain View,CA,NaN,37.386052,-122.083851
1029,Noyo,San Francisco,CA,NaN,37.774929,-122.419415
831,Miles,75 E Santa Clara St,Su,NaN,37.337119,-121.889391
257,Forkable,San Francisco,CA,NaN,37.774929,-122.419415
232,Enwoven,Oakland,CA,NaN,37.804364,-122.271114
227,Employbl,Alameda,CA,NaN,37.765206,-122.241636
929,eBay Inc.,2025 E Hamilton Ave,Sa,NaN,37.295337,-121.926095
928,Drawbridge,2121 S El Camino Real,Sa,NaN,37.547371,-122.307611
912,Dover,San Francisco,CA,NaN,37.774929,-122.419415
191,Daily Kos,Oakland,CA,NaN,37.804364,-122.271114
996,Codi,San Francisco,CA,NaN,37.774929,-122.419415
995,Coderpad,San Francisco,CA,NaN,37.774929,-122.419415
923,Cloudera Inc,433 California St,Sa,NaN,37.792699,-122.401684
860,Google Cloud,Sunnyvale,CA,NaN,37.411097,-122.018176
153,ClearBrain,San Francisco,CA,NaN,37.774929,-122.419415
920,Brocade,130 Holger Way,Sa,NaN,37.418482,-121.95232
88,Binc,San Francisco,CA,NaN,37.774929,-122.419415
85,Bexi,San Leandro,CA,NaN,37.72493,-122.156077
69,Automattic,San Francisco,CA,NaN,37.774929,-122.419415
816,Aura Frames,San Francisco,CA,NaN,37.774929,-122.419415
702,Tetra,San Francisco,CA,NaN,37.774929,-122.419415
1072,Apollo GraphQL,140 10th Street,Sa,NaN,37.77469,-122.415463
11,Abl Schools,San Francisco,CA,NaN,37.774929,-122.419415
3,10 by 10,San Francisco,CA,NaN,37.774929,-122.419415